#dP2024  6  3  0  0  0.00000000      96 __u+U IGS20 EXT  IAC
## 2317  86400.00000000   900.00000000 60464 0.0000000000000
+   54   G02G03G04G05G06G07G08G09G10G11G12G13G14G15G16G17G18
+        G19G20G21G22G23G24G25G26G27G28G29G30G31G32R01R02R03
+        R04R05R07R08R09R11R12R13R14R15R16R17R18R19R20R21R22
+        R24R25R26  0  0  0  0  0  0  0  0  0  0  0  0  0  0
+          0  0  0  0  0  0  0  0  0  0  0  0  0  0  0  0  0
++         8  7  8  7  8  8  8  7  8  7  8  8  7  7 10  8  7
++         7 10  9  9  8  7  8  9  8  8  6  7  7  7  8  8  8
++         9  6  8  7  8  7  6  8  8  8  7  8  9  8  9  8  6
++         6  8  8  0  0  0  0  0  0  0  0  0  0  0  0  0  0
++         0  0  0  0  0  0  0  0  0  0  0  0  0  0  0  0  0
%c M  cc GPS ccc cccc cccc cccc cccc ccccc ccccc ccccc ccccc
%c cc cc ccc ccc cccc cccc cccc cccc ccccc ccccc ccccc ccccc
%f  0.0000000  0.000000000  0.00000000000  0.000000000000000
%f  0.0000000  0.000000000  0.00000000000  0.000000000000000
%i    0    0    0    0      0      0      0      0         0
%i    0    0    0    0      0      0      0      0         0
/* IAC                                ULTRA-RAPID PREDICTION
/* S/V CLOCKS ARE ALIGNED TO GNSS TIME                      
/* G:C1WC2W R:C1PC2P E:C1XC5X C:C2IC6I J:C1CC2S             
/* PCV:IGS20_2290 OL/AL:FES2004  NONE     YN ORB:CoN CLK:CoN
*  2024 06 03  0  0  0.00000000
PG02 -14195.384914  17401.583773  14424.579755   -424.854944
PG03 -19910.737900  12599.649118 -12292.548749    394.860016
PG04 -10346.208690  11121.010761 -21764.544503    374.862146
PG05  26005.659130  -4935.473355  -2885.428963   -174.952340
PG06   7515.811879  16843.659717 -19007.579483    239.838572
PG07  -4570.534950  25548.381218   4806.487831   -104.941185
PG08 -17982.164223   1415.603550  19520.474245    210.758916
PG09   1715.698056  19783.000092 -17694.111685    219.973623
PG10 -11548.810169 -11820.755070  21074.090546    -34.835172
PG11  14756.387884   3502.793068 -21779.562778   -676.937145
PG12  21920.185644 -10733.961543 -10694.306143   -510.796476
PG13  19179.695350   8497.941135  16221.671225    655.187090
PG14   7266.950487  14225.772015  21278.976111    416.080181
PG15  17695.661944  -3726.910394  19015.602826    165.894216
PG16 -26276.445415   -536.708816  -5564.895686   -274.877666
PG17  11720.534085  22688.347215   7409.844240    699.760117
PG18   4999.176970 -25470.477709   5113.232742   -619.721709
PG19  17141.454838  20440.496706  -2503.720400    490.939651
PG20  23266.251317     82.889206 -12616.187202    374.309531
PG21 -15493.561207  11789.692052  18013.793633    117.853860
PG22  14905.076981  11517.188871  19028.798042    -22.184039
PG23   1934.171454 -15383.634824  21559.519632    240.914166
PG24  14580.669486 -15999.995553  14692.363277   -474.901959
PG25  13159.536678 -15675.136712 -17125.573734    496.767487
PG26 -19657.536586  -7058.701463 -16762.336901    143.225689
PG27 -21190.162785  -9928.716815  12664.541979    -26.741037
PG28  -7116.407337 -18945.888647 -17211.883170   -271.550895
PG29   2476.489858 -18176.935777 -19214.623195   -595.898104
PG30   3513.403151  22378.184691  13796.839391   -380.493780
PG31 -13331.494063  -8315.758687 -21591.586269   -227.589800
PG32 -14983.204951 -21485.546904   5213.966357   -617.247409
PR01 -15125.830265   3628.514703 -20207.091609     87.259534
PR02   1245.436427  12245.099500 -22284.462474    -23.152082
PR03  17309.980396  14597.974035 -11640.943067    101.338411
PR04  23279.529353   9126.773710   5051.390310    239.328548
PR05  16900.975161  -1295.312692  19067.951214    132.481883
PR07 -17833.493679 -14578.082894  11052.786616     83.726983
PR08 -23366.018041  -8858.750396  -5133.579499     -4.512426
PR09  10775.028662 -17196.089028 -15488.349059    190.054973
PR11 -17658.621235   1593.509215 -18316.324627     22.667703
PR12 -21380.259465  13878.067940  -1081.726365     40.857313
PR13 -13149.526718  17104.128977  13599.773179    -47.994525
PR14   5196.037107   9942.950530  22923.445571     26.535753
PR15  18627.382596  -2585.200052  17261.781881     79.197154
PR16  21393.094322 -13862.333831   1388.786514     26.127948
PR17   6499.920582  21952.779025 -11289.464412     92.389923
PR18  10321.670785   7823.686855 -21956.880871    145.125317
PR19   9732.100638  -8240.840126 -22097.001288   -278.899671
PR20   2804.225406 -24352.036753  -7127.322779   -113.849602
PR21  -6185.451877 -22097.051680  11106.037318   -106.037078
PR22 -10650.729194  -6882.872329  22156.296110    106.835728
PR24  -1626.790279  24611.470266   6548.495020    -58.324528
PR25  -5895.854208 -21989.617911  11485.615280    -23.018611
PR26 -23395.534140  -9330.975709  -3919.418823     -7.115339
*  2024 06 03  0 15  0.00000000
PG02 -14039.953656  15698.641096  16479.432231   -424.848689
PG03 -21155.734308  12737.767271  -9770.072913    394.876772
PG04 -12025.098128   9276.798362 -21777.732079    374.869565
PG05  25618.047456  -4596.806478  -5702.359064   -174.953625
PG06   6815.373720  18814.352064 -17346.779117    239.820095
PG07  -4966.412557  25786.955314   1980.339141   -104.929015
PG08 -19461.936199   -169.786354  18148.046114    210.776047
PG09    119.118689  18413.915574 -19202.004747    219.986584
PG10  -9230.151748 -12437.233025  21827.892307    -34.842019
PG11  13964.702216   5870.411316 -21796.888587   -676.944828
PG12  22984.671926 -10698.836165  -8110.710395   -510.799422
PG13  20092.748730  10012.704764  14168.045930    655.189587
PG14   4885.331561  14787.082480  21555.875038    416.088462
PG15  19346.502871  -2274.671197  17639.847348    165.897930
PG16 -25576.319256   -853.372481  -8253.064123   -274.868416
PG17  10936.421801  22109.283282  10052.940231    699.755927
PG18   5340.742729 -25808.040094   2259.914199   -619.726418
PG19  17044.820302  20647.517479    339.485828    490.944507
PG20  21912.615983    937.451837 -14817.017694    374.308310
PG21 -15274.026771   9694.025353  19517.365442    117.851794
PG22  12772.208648  11973.910862  20309.414765    -22.188596
PG23   4275.693008 -15978.573675  20756.791768    240.922528
PG24  14497.131951 -14103.490378  16583.013074   -474.904558
PG25  14954.778113 -15959.789595 -15224.711873    496.768029
PG26 -17838.821449  -7856.542944 -18346.592574    143.220301
PG27 -21992.545572 -11016.775620  10258.004141    -26.742389
PG28  -6503.530283 -20709.463316 -15317.590132   -271.566121
PG29   4000.761717 -16506.304867 -20440.356851   -595.896714
PG30   2850.687161  23689.467096  11527.513960   -380.488332
PG31 -12559.684116 -10589.822716 -21011.013082   -227.589656
PG32 -14315.931031 -21129.345353   7928.069147   -617.246630
PR01 -17359.252143   2779.749503 -18470.790065     87.260529
PR02  -1283.845142  11037.665040 -22908.064405    -23.152211
PR03  15894.727940  13816.477056 -14302.410052    101.339002
PR04  23737.350915   9144.401235   1860.191221    239.329994
PR05  18966.916130   -453.130437  17054.325638    132.482438
PR07 -16504.272369 -13820.982315  13763.952427     83.727656
PR08 -23838.526367  -8895.121505  -1954.527553     -4.512923
PR09  12121.805783 -18327.966916 -13006.095317    190.056698
PR11 -15701.680917    249.349156 -20081.406671     22.666566
PR12 -21032.369904  13789.685024  -4264.745423     40.857689
PR13 -14296.331414  18096.254536  10890.859283    -47.994918
PR14   2953.770693  11619.033368  22528.179748     26.535721
PR15  16764.287845  -1330.889155  19206.107012     79.196816
PR16  21005.993302 -13771.176933   4574.526786     26.128207
PR17   6786.414149  23144.347562  -8365.865409     92.392933
PR18  10613.254237  10446.529006 -20686.663253    145.126871
PR19   9817.239548  -5461.776327 -22906.733175   -278.900954
PR20   2648.428795 -23276.806362 -10138.545745   -113.850178
PR21  -6467.077971 -23269.478074   8160.306566   -106.039980
PR22 -10849.889211  -9536.468081  21048.671750    106.832525
PR24  -1574.245257  23610.081608   9558.999112    -58.325904
PR25  -6093.047497 -23220.453173   8594.923689    -23.047000
PR26 -23725.155125  -9301.792576   -714.208261     -7.114687
EOF
